[{"CCSDS_OMM_VERS":"2.0","COMMENT":"GENERATED VIA SPACE-TRACK.ORG API","CREATION_DATE":"2018-02-11T06:46:18","ORIGINATOR":"18 SPCS","OBJECT_NAME":"UPSAT","OBJECT_ID":"1998-067LX","CENTER_NAME":"EARTH","REF_FRAME":"TEME","TIME_SYSTEM":"UTC","MEAN_ELEMENT_THEORY":"SGP4","EPOCH":"2018-02-10T21:58:49.898784","MEAN_MOTION":"15.66764449","ECCENTRICITY":"0.00041370","INCLINATION":"51.6361","RA_OF_ASC_NODE":"276.2234","ARG_OF_PERICENTER":"139.4323","MEAN_ANOMALY":"220.6982","EPHEMERIS_TYPE":"0","CLASSIFICATION_TYPE":"U","NORAD_CAT_ID":"42716","ELEMENT_SET_NO":"999","REV_AT_EPOCH":"4192","BSTAR":"0.00023314000000","MEAN_MOTION_DOT":"0.00024587","MEAN_MOTION_DDOT":"0.0000000000000","SEMIMAJOR_AXIS":"6746.305","PERIOD":"91.909","APOAPSIS":"370.961","PERIAPSIS":"365.380","OBJECT_TYPE":"PAYLOAD","RCS_SIZE":"SMALL","COUNTRY_CODE":"GREC","LAUNCH_DATE":"1998-11-20","SITE":"TTMTR","DECAY_DATE":null,"FILE":"2246141","GP_ID":"117833418","TLE_LINE0":"0 UPSAT","TLE_LINE1":"1 42716U 98067LX  18041.91585531 +.00024587 +00000-0 +23314-3 0  9993","TLE_LINE2":"2 42716 051.6361 276.2234 0004137 139.4323 220.6982 15.66764449041927"},{"CCSDS_OMM_VERS":"2.0","COMMENT":"GENERATED VIA SPACE-TRACK.ORG API","CREATION_DATE":"2018-02-12T00:08:49","ORIGINATOR":"18 SPCS","OBJECT_NAME":"UPSAT","OBJECT_ID":"1998-067LX","CENTER_NAME":"EARTH","REF_FRAME":"TEME","TIME_SYSTEM":"UTC","MEAN_ELEMENT_THEORY":"SGP4","EPOCH":"2018-02-11T11:45:27.122400","MEAN_MOTION":"15.66790668","ECCENTRICITY":"0.00041360","INCLINATION":"51.6360","RA_OF_ASC_NODE":"273.3067","ARG_OF_PERICENTER":"141.8925","MEAN_ANOMALY":"218.2364","EPHEMERIS_TYPE":"0","CLASSIFICATION_TYPE":"U","NORAD_CAT_ID":"42716","ELEMENT_SET_NO":"999","REV_AT_EPOCH":"4201","BSTAR":"0.00020571000000","MEAN_MOTION_DOT":"0.00021643","MEAN_MOTION_DDOT":"0.0000000000000","SEMIMAJOR_AXIS":"6746.230","PERIOD":"91.907","APOAPSIS":"370.885","PERIAPSIS":"365.305","OBJECT_TYPE":"PAYLOAD","RCS_SIZE":"SMALL","COUNTRY_CODE":"GREC","LAUNCH_DATE":"1998-11-20","SITE":"TTMTR","DECAY_DATE":null,"FILE":"2246442","GP_ID":"117850246","TLE_LINE0":"0 UPSAT","TLE_LINE1":"1 42716U 98067LX  18042.48989725 +.00021643 +00000-0 +20571-3 0  9991","TLE_LINE2":"2 42716 051.6360 273.3067 0004136 141.8925 218.2364 15.66790668042012"},{"CCSDS_OMM_VERS":"2.0","COMMENT":"GENERATED VIA SPACE-TRACK.ORG API","CREATION_DATE":"2018-02-12T06:31:03","ORIGINATOR":"18 SPCS","OBJECT_NAME":"UPSAT","OBJECT_ID":"1998-067LX","CENTER_NAME":"EARTH","REF_FRAME":"TEME","TIME_SYSTEM":"UTC","MEAN_ELEMENT_THEORY":"SGP4","EPOCH":"2018-02-11T20:56:31.515936","MEAN_MOTION":"15.66807298","ECCENTRICITY":"0.00040800","INCLINATION":"51.6359","RA_OF_ASC_NODE":"271.3628","ARG_OF_PERICENTER":"142.4169","MEAN_ANOMALY":"217.7113","EPHEMERIS_TYPE":"0","CLASSIFICATION_TYPE":"U","NORAD_CAT_ID":"42716","ELEMENT_SET_NO":"999","REV_AT_EPOCH":"4207","BSTAR":"0.00020503000000","MEAN_MOTION_DOT":"0.00021584","MEAN_MOTION_DDOT":"0.0000000000000","SEMIMAJOR_AXIS":"6746.182","PERIOD":"91.906","APOAPSIS":"370.800","PERIAPSIS":"365.295","OBJECT_TYPE":"PAYLOAD","RCS_SIZE":"SMALL","COUNTRY_CODE":"GREC","LAUNCH_DATE":"1998-11-20","SITE":"TTMTR","DECAY_DATE":null,"FILE":"2246497","GP_ID":"117858115","TLE_LINE0":"0 UPSAT","TLE_LINE1":"1 42716U 98067LX  18042.87258699 +.00021584 +00000-0 +20503-3 0  9992","TLE_LINE2":"2 42716 051.6359 271.3628 0004080 142.4169 217.7113 15.66807298042076"},{"CCSDS_OMM_VERS":"2.0","COMMENT":"GENERATED VIA SPACE-TRACK.ORG API","CREATION_DATE":"2018-02-13T05:45:30","ORIGINATOR":"18 SPCS","OBJECT_NAME":"UPSAT","OBJECT_ID":"1998-067LX","CENTER_NAME":"EARTH","REF_FRAME":"TEME","TIME_SYSTEM":"UTC","MEAN_ELEMENT_THEORY":"SGP4","EPOCH":"2018-02-12T00:00:12.889152","MEAN_MOTION":"15.66814449","ECCENTRICITY":"0.00040510","INCLINATION":"51.6359","RA_OF_ASC_NODE":"270.7148","ARG_OF_PERICENTER":"142.7235","MEAN_ANOMALY":"217.4043","EPHEMERIS_TYPE":"0","CLASSIFICATION_TYPE":"U","NORAD_CAT_ID":"42716","ELEMENT_SET_NO":"999","REV_AT_EPOCH":"4209","BSTAR":"0.00022163000000","MEAN_MOTION_DOT":"0.00023390","MEAN_MOTION_DDOT":"0.0000000000000","SEMIMAJOR_AXIS":"6746.162","PERIOD":"91.906","APOAPSIS":"370.760","PERIAPSIS":"365.294","OBJECT_TYPE":"PAYLOAD","RCS_SIZE":"SMALL","COUNTRY_CODE":"GREC","LAUNCH_DATE":"1998-11-20","SITE":"TTMTR","DECAY_DATE":null,"FILE":"2246791","GP_ID":"117874380","TLE_LINE0":"0 UPSAT","TLE_LINE1":"1 42716U 98067LX  18043.00014918 +.00023390 +00000-0 +22163-3 0  9993","TLE_LINE2":"2 42716 051.6359 270.7148 0004051 142.7235 217.4043 15.66814449042098"},{"CCSDS_OMM_VERS":"2.0","COMMENT":"GENERATED VIA SPACE-TRACK.ORG API","CREATION_DATE":"2018-02-13T07:05:35","ORIGINATOR":"18 SPCS","OBJECT_NAME":"UPSAT","OBJECT_ID":"1998-067LX","CENTER_NAME":"EARTH","REF_FRAME":"TEME","TIME_SYSTEM":"UTC","MEAN_ELEMENT_THEORY":"SGP4","EPOCH":"2018-02-12T19:54:10.943712","MEAN_MOTION":"15.66846245","ECCENTRICITY":"0.00040210","INCLINATION":"51.6356","RA_OF_ASC_NODE":"266.5019","ARG_OF_PERICENTER":"146.3645","MEAN_ANOMALY":"213.7607","EPHEMERIS_TYPE":"0","CLASSIFICATION_TYPE":"U","NORAD_CAT_ID":"42716","ELEMENT_SET_NO":"999","REV_AT_EPOCH":"4222","BSTAR":"0.00019221000000","MEAN_MOTION_DOT":"0.00020228","MEAN_MOTION_DDOT":"0.0000000000000","SEMIMAJOR_AXIS":"6746.071","PERIOD":"91.904","APOAPSIS":"370.648","PERIAPSIS":"365.223","OBJECT_TYPE":"PAYLOAD","RCS_SIZE":"SMALL","COUNTRY_CODE":"GREC","LAUNCH_DATE":"1998-11-20","SITE":"TTMTR","DECAY_DATE":null,"FILE":"2246792","GP_ID":"117881584","TLE_LINE0":"0 UPSAT","TLE_LINE1":"1 42716U 98067LX  18043.82929333 +.00020228 +00000-0 +19221-3 0  9997","TLE_LINE2":"2 42716 051.6356 266.5019 0004021 146.3645 213.7607 15.66846245042226"},{"CCSDS_OMM_VERS":"2.0","COMMENT":"GENERATED VIA SPACE-TRACK.ORG API","CREATION_DATE":"2018-02-14T05:38:18","ORIGINATOR":"18 SPCS","OBJECT_NAME":"UPSAT","OBJECT_ID":"1998-067LX","CENTER_NAME":"EARTH","REF_FRAME":"TEME","TIME_SYSTEM":"UTC","MEAN_ELEMENT_THEORY":"SGP4","EPOCH":"2018-02-13T11:12:36.046368","MEAN_MOTION":"15.66873938","ECCENTRICITY":"0.00039990","INCLINATION":"51.6353","RA_OF_ASC_NODE":"263.2609","ARG_OF_PERICENTER":"149.5124","MEAN_ANOMALY":"210.6105","EPHEMERIS_TYPE":"0","CLASSIFICATION_TYPE":"U","NORAD_CAT_ID":"42716","ELEMENT_SET_NO":"999","REV_AT_EPOCH":"4232","BSTAR":"0.00019505000000","MEAN_MOTION_DOT":"0.00020559","MEAN_MOTION_DDOT":"0.0000000000000","SEMIMAJOR_AXIS":"6745.991","PERIOD":"91.902","APOAPSIS":"370.554","PERIAPSIS":"365.158","OBJECT_TYPE":"PAYLOAD","RCS_SIZE":"SMALL","COUNTRY_CODE":"GREC","LAUNCH_DATE":"1998-11-20","SITE":"TTMTR","DECAY_DATE":null,"FILE":"2247207","GP_ID":"117899750","TLE_LINE0":"0 UPSAT","TLE_LINE1":"1 42716U 98067LX  18044.46708387 +.00020559 +00000-0 +19505-3 0  9994","TLE_LINE2":"2 42716 051.6353 263.2609 0003999 149.5124 210.6105 15.66873938042321"},{"CCSDS_OMM_VERS":"2.0","COMMENT":"GENERATED VIA SPACE-TRACK.ORG API","CREATION_DATE":"2018-02-14T06:50:34","ORIGINATOR":"18 SPCS","OBJECT_NAME":"UPSAT","OBJECT_ID":"1998-067LX","CENTER_NAME":"EARTH","REF_FRAME":"TEME","TIME_SYSTEM":"UTC","MEAN_ELEMENT_THEORY":"SGP4","EPOCH":"2018-02-13T20:23:38.687712","MEAN_MOTION":"15.66890077","ECCENTRICITY":"0.00039340","INCLINATION":"51.6351","RA_OF_ASC_NODE":"261.3166","ARG_OF_PERICENTER":"150.4624","MEAN_ANOMALY":"209.6595","EPHEMERIS_TYPE":"0","CLASSIFICATION_TYPE":"U","NORAD_CAT_ID":"42716","ELEMENT_SET_NO":"999","REV_AT_EPOCH":"4238","BSTAR":"0.00020269000000","MEAN_MOTION_DOT":"0.00021403","MEAN_MOTION_DDOT":"0.0000000000000","SEMIMAJOR_AXIS":"6745.945","PERIOD":"91.901","APOAPSIS":"370.464","PERIAPSIS":"365.156","OBJECT_TYPE":"PAYLOAD","RCS_SIZE":"SMALL","COUNTRY_CODE":"GREC","LAUNCH_DATE":"1998-11-20","SITE":"TTMTR","DECAY_DATE":null,"FILE":"2247253","GP_ID":"117908472","TLE_LINE0":"0 UPSAT","TLE_LINE1":"1 42716U 98067LX  18044.84975333 +.00021403 +00000-0 +20269-3 0  9991","TLE_LINE2":"2 42716 051.6351 261.3166 0003934 150.4624 209.6595 15.66890077042381"},{"CCSDS_OMM_VERS":"2.0","COMMENT":"GENERATED VIA SPACE-TRACK.ORG API","CREATION_DATE":"2018-02-15T00:14:56","ORIGINATOR":"18 SPCS","OBJECT_NAME":"UPSAT","OBJECT_ID":"1998-067LX","CENTER_NAME":"EARTH","REF_FRAME":"TEME","TIME_SYSTEM":"UTC","MEAN_ELEMENT_THEORY":"SGP4","EPOCH":"2018-02-14T14:45:42.920640","MEAN_MOTION":"15.66921719","ECCENTRICITY":"0.00039370","INCLINATION":"51.6349","RA_OF_ASC_NODE":"257.4270","ARG_OF_PERICENTER":"153.7784","MEAN_ANOMALY":"206.3412","EPHEMERIS_TYPE":"0","CLASSIFICATION_TYPE":"U","NORAD_CAT_ID":"42716","ELEMENT_SET_NO":"999","REV_AT_EPOCH":"4250","BSTAR":"0.00019811000000","MEAN_MOTION_DOT":"0.00020933","MEAN_MOTION_DDOT":"0.0000000000000","SEMIMAJOR_AXIS":"6745.854","PERIOD":"91.899","APOAPSIS":"370.375","PERIAPSIS":"365.063","OBJECT_TYPE":"PAYLOAD","RCS_SIZE":"SMALL","COUNTRY_CODE":"GREC","LAUNCH_DATE":"1998-11-20","SITE":"TTMTR","DECAY_DATE":null,"FILE":"2247608","GP_ID":"117925153","TLE_LINE0":"0 UPSAT","TLE_LINE1":"1 42716U 98067LX  18045.61508010 +.00020933 +00000-0 +19811-3 0  9999","TLE_LINE2":"2 42716 051.6349 257.4270 0003937 153.7784 206.3412 15.66921719042500"}]